[{"OBJECT_NAME":"TEVEL2-8","OBJECT_ID":"2025-052AF","EPOCH":"2026-03-09T16:02:08.542752","MEAN_MOTION":15.28392908,"ECCENTRICITY":0.0008031,"INCLINATION":97.4055,"RA_OF_ASC_NODE":324.2923,"ARG_OF_PERICENTER":124.9191,"MEAN_ANOMALY":235.2804,"EPHEMERIS_TYPE":0,"CLASSIFICATION_TYPE":"U","NORAD_CAT_ID":63239,"ELEMENT_SET_NO":999,"REV_AT_EPOCH":5480,"BSTAR":0.00069303947,"MEAN_MOTION_DOT":0.0001913,"MEAN_MOTION_DDOT":0},{"OBJECT_NAME":"STARLINK-36491","OBJECT_ID":"2026-002F","EPOCH":"2026-03-09T09:52:24.587616","MEAN_MOTION":15.27574029,"ECCENTRICITY":8.71e-5,"INCLINATION":42.9986,"RA_OF_ASC_NODE":327.0738,"ARG_OF_PERICENTER":293.9066,"MEAN_ANOMALY":66.1694,"EPHEMERIS_TYPE":0,"CLASSIFICATION_TYPE":"U","NORAD_CAT_ID":67310,"ELEMENT_SET_NO":999,"REV_AT_EPOCH":1103,"BSTAR":0.0013209379,"MEAN_MOTION_DOT":0.00036259,"MEAN_MOTION_DDOT":0}]
